FASTRAC 2 (USA 228)     
1 37380U 10062M   22297.47872842  .00000755  00000+0  10749-3 0  9994
2 37380  71.9725 227.7491 0014540  94.7910 265.4914 14.79825625168454
BREEZE-M R/B            
1 37381U 08006C   22297.50236582 -.00000105  00000+0  00000+0 0  9994
2 37381  10.1090  33.8701 0249639 273.6119 129.9585  0.95122074 50283
BEIDOU 8                
1 37384U 11013A   22297.26783027 -.00000186  00000+0  00000+0 0  9992
2 37384  60.4811  52.9887 0024601 179.9816   4.4781  1.00273475 42313
CZ-3A R/B               
1 37385U 11013B   22297.24472009  .00000025  00000+0  00000+0 0  9997
2 37385  55.5475 156.3756 6411998  10.4030 358.4490  2.63326508109916
RESOURCESAT-2           
1 37387U 11015A   22297.48875892  .00000129  00000+0  78616-4 0  9992
2 37387  98.6516   7.5522 0005194  66.8059 293.3663 14.21660946597494
YOUTHSAT                
1 37388U 11015B   22297.05317628  .00000157  00000+0  85500-4 0  9995
2 37388  98.3178 319.3069 0013665 296.6278 118.2168 14.24437209597913
X-SAT                   
1 37389U 11015C   22297.47516108  .00000067  00000+0  46608-4 0  9992
2 37389  98.3259 324.1280 0012954 295.9446  64.0404 14.24447753598571
PSLV R/B                
1 37390U 11015D   22297.42786532  .00000115  00000+0  63838-4 0  9997
2 37390  98.3236 274.7147 0017429 231.9493 279.8409 14.27398270599770
INTELSAT NEW DAWN       
1 37392U 11016A   22297.22565443  .00000167  00000+0  00000+0 0  9998
2 37392   0.0149 233.4004 0001043 326.5355 306.7332  1.00267238 39930
YAHSAT 1A               
1 37393U 11016B   22297.51651441  .00000113  00000+0  00000+0 0  9996
2 37393   0.0289 270.1375 0001973 330.8756  30.3539  1.00271000 29053
ARIANE 5 R/B            
1 37394U 11016C   22297.39703562  .00005833  00000+0  89930-3 0  9992
2 37394   5.2882 151.2924 6876623 200.6053 106.2648  2.81618244107024
MERIDIAN 4              
1 37398U 11018A   22296.21731655 -.00000417  00000+0  10567-2 0  9995
2 37398  62.4849 268.0285 7245434 254.6791 220.4933  2.00689223 84039
SL-26 R/B               
1 37399U 11018B   22297.11727313  .00001117  00000+0 -68442-2 0  9995
2 37399  62.6809 255.8812 7231038 256.6851  20.3787  2.00595958 84048
FENGYUN 1C DEB          
1 37400U 99025EFS 22296.74054015  .00000365  00000+0  30675-3 0  9993
2 37400  98.9438 213.9385 0408524 246.2835 109.4952 13.61149586645897
FENGYUN 1C DEB          
1 37404U 99025EFW 22295.81994817  .00001190  00000+0  51870-3 0  9994
2 37404  98.4926 317.6803 0047565 295.9808 239.4824 14.25176098663701
FENGYUN 1C DEB          
1 37406U 99025EFY 22297.09967057  .00001111  00000+0  72882-3 0  9993
2 37406  98.4669 234.9285 0159246 250.0398 121.1322 13.97935723471914
FENGYUN 1C DEB          
1 37408U 99025EGA 22296.54139795  .00032747  00000+0  49949-2 0  9990
2 37408  98.5181 319.1099 0042890  24.6299 126.5489 14.73140125656104
FENGYUN 1C DEB          
1 37413U 99025EGF 22295.14354463  .00014539  00000+0  38372-2 0  9999
2 37413  98.6921 261.6665 0070698  34.0580 326.5119 14.47528411708130
FENGYUN 1C DEB          
1 37415U 99025EGH 22295.80903185  .00000081  00000+0  14449-3 0  9992
2 37415  98.8984 142.6673 0287982 231.5036 125.9954 13.50684546468312
FENGYUN 1C DEB          
1 37417U 99025EGK 22297.26001567  .00000504  00000+0  32843-3 0  9997
2 37417  98.7780 308.5359 0080366 240.3902 118.9242 14.05325821522501
FENGYUN 1C DEB          
1 37418U 99025EGL 22296.68717823  .00001814  00000+0  46773-2 0  9993
2 37418  98.6142 197.9228 1080146  56.9585 313.0596 11.91566740358161
FENGYUN 1C DEB          
1 37419U 99025EGM 22290.11055910  .00005258  00000+0  26087-2 0  9990
2 37419  98.6184  45.6309 0475474  90.9947 274.5696 13.71559099144083
FENGYUN 1C DEB          
1 37420U 99025EGN 22296.28569460  .00000153  00000+0  13543-3 0  9999
2 37420  98.8462 310.9437 0073495 210.4921 149.1959 13.97748184437384
FENGYUN 1C DEB          
1 37421U 99025EGP 22296.18280937  .00000129  00000+0  18413-3 0  9992
2 37421  98.9120  15.0523 0413877  85.2414 279.5841 13.39029835455933
FENGYUN 1C DEB          
1 37422U 99025EGQ 22297.44859056  .00003556  00000+0  16523-2 0  9993
2 37422  98.8667  16.5266 0040720 135.2213 225.2262 14.20814068464560
FENGYUN 1C DEB          
1 37423U 99025EGR 22296.42889681  .00000721  00000+0  48587-3 0  9995
2 37423  98.8955 359.5655 0052870 129.7566 230.8276 14.03032012475113
FENGYUN 1C DEB          
1 37424U 99025EGS 22296.17160203  .00001399  00000+0  62399-3 0  9999
2 37424  97.1850 271.0704 0238040  87.5902 275.2502 14.09854113523741
FENGYUN 1C DEB          
1 37425U 99025EGT 22295.58871285  .00001533  00000+0  12860-2 0  9990
2 37425  97.1718  44.4433 0170611 179.1391 197.4740 13.82637466691896
FENGYUN 1C DEB          
1 37427U 99025EGV 22295.35551384  .00003475  00000+0  29702-3 0  9993
2 37427  98.6708 325.7591 0254372  26.5999 334.8003 14.76647282432847
FENGYUN 1C DEB          
1 37428U 99025EGW 22297.18897897  .00003656  00000+0  17971-2 0  9994
2 37428  97.7269 276.7416 0073583 278.6660  80.6187 14.16757741471195
FENGYUN 1C DEB          
1 37429U 99025EGX 22295.29554004  .00000610  00000+0  37263-3 0  9999
2 37429  98.6514 319.7334 0107598   8.6008 351.6973 14.06648619469392
FENGYUN 1C DEB          
1 37430U 99025EGY 22297.39153949  .00002249  00000+0  11346-2 0  9990
2 37430  98.8527 356.6133 0024084 131.0348 229.2913 14.17141939454194
FENGYUN 1C DEB          
1 37432U 99025EHA 22295.82348428  .00001944  00000+0  46946-3 0  9992
2 37432  98.2729 325.9546 0217454 188.7389 170.9990 14.40904302481655
FENGYUN 1C DEB          
1 37433U 99025EHB 22283.16962239  .00004895  00000+0  32396-2 0  9990
2 37433  98.1166 244.1156 0261597 243.0461 114.3761 13.86608803 75587
FENGYUN 1C DEB          
1 37435U 99025EHD 22296.35665333  .00001545  00000+0  81522-3 0  9997
2 37435  98.7465 339.6098 0045888  70.2227 290.3886 14.14783532726902
FENGYUN 1C DEB          
1 37436U 99025EHE 22296.92410977  .00001000  00000+0  65889-3 0  9997
2 37436  99.0884 343.7005 0062276  98.9596 261.8625 14.03211169479125
FENGYUN 1C DEB          
1 37437U 99025EHF 22293.29205185  .00000652  00000+0  33499-3 0  9992
2 37437  98.5825 310.8081 0119885 116.0075 307.9359 14.14823472477163
FENGYUN 1C DEB          
1 37438U 99025EHG 22280.88034737  .00001197  00000+0  68642-3 0  9990
2 37438  98.8658 323.0243 0029470 282.7959  76.9919 14.11140625744542
FENGYUN 1C DEB          
1 37439U 99025EHH 22289.96322081  .00002472  00000+0  14722-2 0  9997
2 37439  99.0983 345.6189 0067628 101.8442  23.7511 14.07153617449945
FENGYUN 1C DEB          
1 37441U 99025EHK 22296.68973293  .00000598  00000+0  92964-3 0  9996
2 37441  99.1532 279.9610 0519993 257.8104  96.4328 13.10567954671396
FENGYUN 1C DEB          
1 37443U 99025EHM 22276.09768173  .00004847  00000+0  27364-2 0  9992
2 37443  98.4332 225.6426 0135459 268.3992  90.1658 14.06138752 56316
FENGYUN 1C DEB          
1 37444U 99025EHN 22296.19433873  .00001821  00000+0  41124-3 0  9992
2 37444  99.1562 280.4097 0288144 128.3895 234.3549 14.35095753486379
FENGYUN 1C DEB          
1 37445U 99025EHP 22293.14995769  .00001460  00000+0  57736-3 0  9997
2 37445  99.3369 279.4275 0180360 330.6447  28.4690 14.22221688480709
FENGYUN 1C DEB          
1 37447U 99025EHR 22295.38729347  .00001101  00000+0  61583-3 0  9991
2 37447  98.9345 346.9575 0043401 252.4823 170.5182 14.12422908472338
FENGYUN 1C DEB          
1 37448U 99025EHS 22295.37824908  .00001941  00000+0  12991-2 0  9990
2 37448  99.4222 348.8074 0336508 227.2633 129.9744 13.78012520465246
FENGYUN 1C DEB          
1 37449U 99025EHT 22297.40852881  .00011934  00000+0  99940-3 0  9991
2 37449  98.8527 166.3274 0129389 343.2772  16.4196 14.92268170706355
FENGYUN 1C DEB          
1 37453U 99025EHX 22294.19489382  .00002200  00000+0  19513-2 0  9994
2 37453  97.6440 103.2227 0406949  91.1788 273.5996 13.53612184740148
FENGYUN 1C DEB          
1 37455U 99025EHZ 22294.95153480  .00007959  00000+0  92768-3 0  9997
2 37455  99.4021  17.4785 0186726 101.1532 261.0727 14.73780995455806
FENGYUN 1C DEB          
1 37456U 99025EJA 22295.61481653  .00011669  00000+0  15924-2 0  9999
2 37456  98.9089  66.6974 0101029  71.5726 289.6432 14.75291041708899
FENGYUN 1C DEB          
1 37457U 99025EJB 22275.29950917  .00002885  00000+0  16516-2 0  9994
2 37457  99.1820 299.8578 0077840 127.6470 233.1795 14.08796954695416
FENGYUN 1C DEB          
1 37460U 99025EJE 22296.97095606  .00002721  00000+0  11065-2 0  9994
2 37460  98.3694 130.2249 0076693 110.4509 250.4928 14.26693324660487
FENGYUN 1C DEB          
1 37461U 99025EJF 22295.77259353  .00001110  00000+0  21292-2 0  9997
2 37461  99.8482 310.2730 0682333 312.5581  41.9807 12.73352915374044
FENGYUN 1C DEB          
1 37462U 99025EJG 22293.92988677  .00032207  00000+0  15442-2 0  9992
2 37462  98.8401 177.1230 0120902  13.8021 346.6462 15.12525279752750
FENGYUN 1C DEB          
1 37463U 99025EJH 22296.54650703  .00009227  00000+0  18671-2 0  9993
2 37463  98.7428 205.6439 0110450 341.3365  18.3796 14.57729588506458
FENGYUN 1C DEB          
1 37464U 99025EJJ 22295.64291398  .00002221  00000+0  22086-2 0  9997
2 37464 102.7065 267.4167 0494208  86.1003 279.6444 13.36078794455430
FENGYUN 1C DEB          
1 37469U 99025EJP 22282.26389122  .00085120  00000+0  71339-2 0  9993
2 37469  98.9451  81.3116 0042534  88.1240 272.4849 14.97286932666744
FENGYUN 1C DEB          
1 37470U 99025EJQ 22297.18060477  .00004701  00000+0  17179-2 0  9999
2 37470  98.6868  21.3388 0024115   0.9562 359.1664 14.33276569488020
FENGYUN 1C DEB          
1 37471U 99025EJR 22295.29365751  .00010100  00000+0  10951-2 0  9994
2 37471  98.7536 305.9235 0171497 327.7003  31.3793 14.78203349736991
FENGYUN 1C DEB          
1 37473U 99025EJT 22296.99564079  .00016556  00000+0  18114-2 0  9998
2 37473  99.2016  33.6747 0297904  99.7770 263.7201 14.60587010496869
FENGYUN 1C DEB          
1 37474U 99025EJU 22294.44923911  .00002082  00000+0  48580-3 0  9991
2 37474  99.1404  10.3916 0206942   6.7273 353.6617 14.43729210664349
